[{"OBJECT_NAME":"HAWK-11B","OBJECT_ID":"2024-247C","EPOCH":"2026-03-09T10:44:06.809856","MEAN_MOTION":15.2884707,"ECCENTRICITY":0.00046902,"INCLINATION":45.0161,"RA_OF_ASC_NODE":115.761,"ARG_OF_PERICENTER":333.0326,"MEAN_ANOMALY":27.0314,"EPHEMERIS_TYPE":0,"CLASSIFICATION_TYPE":"U","NORAD_CAT_ID":62379,"ELEMENT_SET_NO":999,"REV_AT_EPOCH":6773,"BSTAR":0.00032841927,"MEAN_MOTION_DOT":9.093e-5,"MEAN_MOTION_DDOT":0},{"OBJECT_NAME":"STARLINK-35666","OBJECT_ID":"2025-244S","EPOCH":"2026-03-09T17:25:22.518912","MEAN_MOTION":15.30163345,"ECCENTRICITY":0.00010388,"INCLINATION":53.1576,"RA_OF_ASC_NODE":229.841,"ARG_OF_PERICENTER":42.1864,"MEAN_ANOMALY":317.9216,"EPHEMERIS_TYPE":0,"CLASSIFICATION_TYPE":"U","NORAD_CAT_ID":66222,"ELEMENT_SET_NO":999,"REV_AT_EPOCH":2166,"BSTAR":0.00068969153,"MEAN_MOTION_DOT":0.000201,"MEAN_MOTION_DDOT":0}]
