HAWK-11B                
1 62379U 24247C   26068.44730104  .00009093  00000+0  32842-3 0  9993
2 62379  45.0161 115.7610 0004690 333.0326  27.0314 15.28847070 67738
STARLINK-35666          
1 66222U 25244S   26068.72595508  .00020100  00000+0  68969-3 0  9991
2 66222  53.1576 229.8410 0001039  42.1864 317.9216 15.30163345 21666
